{"type": "FeatureCollection", "features": [ {"type": "Feature", "properties": {"norad_id": 66806, "name": "STARLINK-36069", "group": "last-30-days", "lat": -40.72309818202249, "lon": 146.73801175599115, "alt_km": 303.63196890134714, "timestamp": "2025-12-11T13:55:00.915503+00:00", "meta": {"OBJECT_NAME": "STARLINK-36069", "OBJECT_ID": "2025-278R", "EPOCH": "2025-12-11T06:00:02.999808", "MEAN_MOTION": 15.91026001, "ECCENTRICITY": 0.00018557, "INCLINATION": 42.9983, "RA_OF_ASC_NODE": 261.2871, "ARG_OF_PERICENTER": 276.3365, "MEAN_ANOMALY": 245.7247, "EPHEMERIS_TYPE": 0, "CLASSIFICATION_TYPE": "U", "NORAD_CAT_ID": 66806, "ELEMENT_SET_NO": 999, "REV_AT_EPOCH": 250, "BSTAR": -0.0038466509, "MEAN_MOTION_DOT": -0.01114447, "MEAN_MOTION_DDOT": 0}, "tle": {"line1": "1 66806U 25278R   25345.25003472 -.01114447  00000+0 -38467-2 0  9995", "line2": "2 66806  42.9983 261.2871 0001855 276.3365 245.7247 15.91026001  2504"}}, "geometry": {"type": "Point", "coordinates": [146.73801175599115, -40.72309818202249]}}, {"type": "Feature", "properties": {"norad_id": 66807, "name": "STARLINK-36000", "group": "last-30-days", "lat": -42.17659746350331, "lon": 155.71593084564122, "alt_km": 303.3332129123319, "timestamp": "2025-12-11T13:55:00.915514+00:00", "meta": {"OBJECT_NAME": "STARLINK-36000", "OBJECT_ID": "2025-278S", "EPOCH": "2025-12-11T06:00:02.999808", "MEAN_MOTION": 15.91159204, "ECCENTRICITY": 0.00018936, "INCLINATION": 42.9982, "RA_OF_ASC_NODE": 261.27, "ARG_OF_PERICENTER": 273.8355, "MEAN_ANOMALY": 254.9972, "EPHEMERIS_TYPE": 0, "CLASSIFICATION_TYPE": "U", "NORAD_CAT_ID": 66807, "ELEMENT_SET_NO": 999, "REV_AT_EPOCH": 277, "BSTAR": -0.0040519621, "MEAN_MOTION_DOT": -0.01332051, "MEAN_MOTION_DDOT": 0.00050631911}, "tle": {"line1": "1 66807U 25278S   25345.25003472 -.01332051  50632-3 -40520-2 0  9992", "line2": "2 66807  42.9982 261.2700 0001893 273.8355 254.9972 15.91159204  2776"}}, "geometry": {"type": "Point", "coordinates": [155.71593084564122, -42.17659746350331]}}, {"type": "Feature", "properties": {"norad_id": 66808, "name": "STARLINK-36071", "group": "last-30-days", "lat": -42.47771102460039, "lon": 158.5336301404692, "alt_km": 303.3292631139557, "timestamp": "2025-12-11T13:55:00.915523+00:00", "meta": {"OBJECT_NAME": "STARLINK-36071", "OBJECT_ID": "2025-278T", "EPOCH": "2025-12-11T06:00:02.999808", "MEAN_MOTION": 15.91210044, "ECCENTRICITY": 0.00017687, "INCLINATION": 42.9981, "RA_OF_ASC_NODE": 261.2646, "ARG_OF_PERICENTER": 270.1621, "MEAN_ANOMALY": 260.7377, "EPHEMERIS_TYPE": 0, "CLASSIFICATION_TYPE": "U", "NORAD_CAT_ID": 66808, "ELEMENT_SET_NO": 999, "REV_AT_EPOCH": 271, "BSTAR": -0.0041870333, "MEAN_MOTION_DOT": -0.01379498, "MEAN_MOTION_DDOT": 0.00054010404}, "tle": {"line1": "1 66808U 25278T   25345.25003472 -.01379498  54010-3 -41870-2 0  9992", "line2": "2 66808  42.9981 261.2646 0001768 270.1621 260.7377 15.91210044  2710"}}, "geometry": {"type": "Point", "coordinates": [158.5336301404692, -42.47771102460039]}}, {"type": "Feature", "properties": {"norad_id": 66809, "name": "STARLINK-35979", "group": "last-30-days", "lat": -42.97530210534701, "lon": 168.58116636965786, "alt_km": 303.0162830177551, "timestamp": "2025-12-11T13:55:00.915533+00:00", "meta": {"OBJECT_NAME": "STARLINK-35979", "OBJECT_ID": "2025-278U", "EPOCH": "2025-12-11T06:00:02.999808", "MEAN_MOTION": 15.91293982, "ECCENTRICITY": 0.00018636, "INCLINATION": 42.9981, "RA_OF_ASC_NODE": 261.246, "ARG_OF_PERICENTER": 273.0923, "MEAN_ANOMALY": 265.1206, "EPHEMERIS_TYPE": 0, "CLASSIFICATION_TYPE": "U", "NORAD_CAT_ID": 66809, "ELEMENT_SET_NO": 999, "REV_AT_EPOCH": 271, "BSTAR": -0.0041326642, "MEAN_MOTION_DOT": -0.01367652, "MEAN_MOTION_DDOT": 0.00053206327}, "tle": {"line1": "1 66809U 25278U   25345.25003472 -.01367652  53206-3 -41327-2 0  9995", "line2": "2 66809  42.9981 261.2460 0001863 273.0923 265.1206 15.91293982  2710"}}, "geometry": {"type": "Point", "coordinates": [168.58116636965786, -42.97530210534701]}}, {"type": "Feature", "properties": {"norad_id": 66810, "name": "STARLINK-36046", "group": "last-30-days", "lat": -42.74640425490427, "lon": 161.93734436001836, "alt_km": 303.204362524104, "timestamp": "2025-12-11T13:55:00.915543+00:00", "meta": {"OBJECT_NAME": "STARLINK-36046", "OBJECT_ID": "2025-278V", "EPOCH": "2025-12-11T06:00:02.999808", "MEAN_MOTION": 15.91232103, "ECCENTRICITY": 0.00018287, "INCLINATION": 42.9983, "RA_OF_ASC_NODE": 261.2585, "ARG_OF_PERICENTER": 271.5678, "MEAN_ANOMALY": 261.8263, "EPHEMERIS_TYPE": 0, "CLASSIFICATION_TYPE": "U", "NORAD_CAT_ID": 66810, "ELEMENT_SET_NO": 999, "REV_AT_EPOCH": 248, "BSTAR": -0.0041266956, "MEAN_MOTION_DOT": -0.01361384, "MEAN_MOTION_DDOT": 0.00052729319}, "tle": {"line1": "1 66810U 25278V   25345.25003472 -.01361384  52729-3 -41267-2 0  9995", "line2": "2 66810  42.9983 261.2585 0001828 271.5678 261.8263 15.91232103  2481"}}, "geometry": {"type": "Point", "coordinates": [161.93734436001836, -42.74640425490427]}}, {"type": "Feature", "properties": {"norad_id": 66811, "name": "STARLINK-36045", "group": "last-30-days", "lat": -42.91478434858488, "lon": 165.41607866703936, "alt_km": 303.1504615414997, "timestamp": "2025-12-11T13:55:00.915553+00:00", "meta": {"OBJECT_NAME": "STARLINK-36045", "OBJECT_ID": "2025-278W", "EPOCH": "2025-12-11T06:00:02.999808", "MEAN_MOTION": 15.91267503, "ECCENTRICITY": 0.0001803, "INCLINATION": 42.9984, "RA_OF_ASC_NODE": 261.2521, "ARG_OF_PERICENTER": 274.6982, "MEAN_ANOMALY": 261.224, "EPHEMERIS_TYPE": 0, "CLASSIFICATION_TYPE": "U", "NORAD_CAT_ID": 66811, "ELEMENT_SET_NO": 999, "REV_AT_EPOCH": 271, "BSTAR": -0.0041545009, "MEAN_MOTION_DOT": -0.01372926, "MEAN_MOTION_DDOT": 0.00053569233}, "tle": {"line1": "1 66811U 25278W   25345.25003472 -.01372926  53569-3 -41545-2 0  9992", "line2": "2 66811  42.9984 261.2521 0001803 274.6982 261.2240 15.91267503  2715"}}, "geometry": {"type": "Point", "coordinates": [165.41607866703936, -42.91478434858488]}}, {"type": "Feature", "properties": {"norad_id": 66812, "name": "STARLINK-36054", "group": "last-30-days", "lat": -42.95679671333612, "lon": 171.35988934858926, "alt_km": 302.9867309495676, "timestamp": "2025-12-11T13:55:00.915564+00:00", "meta": {"OBJECT_NAME": "STARLINK-36054", "OBJECT_ID": "2025-278X", "EPOCH": "2025-12-11T06:00:02.999808", "MEAN_MOTION": 15.91329675, "ECCENTRICITY": 0.00017886, "INCLINATION": 42.9984, "RA_OF_ASC_NODE": 261.2411, "ARG_OF_PERICENTER": 274.0245, "MEAN_ANOMALY": 266.1911, "EPHEMERIS_TYPE": 0, "CLASSIFICATION_TYPE": "U", "NORAD_CAT_ID": 66812, "ELEMENT_SET_NO": 999, "REV_AT_EPOCH": 271, "BSTAR": -0.0041673956, "MEAN_MOTION_DOT": -0.01381515, "MEAN_MOTION_DDOT": 0.00054217031}, "tle": {"line1": "1 66812U 25278X   25345.25003472 -.01381515  54217-3 -41674-2 0  9991", "line2": "2 66812  42.9984 261.2411 0001788 274.0245 266.1911 15.91329675  2710"}}, "geometry": {"type": "Point", "coordinates": [171.35988934858926, -42.95679671333612]}}, {"type": "Feature", "properties": {"norad_id": 66813, "name": "STARLINK-36042", "group": "last-30-days", "lat": -42.87988082359303, "lon": 173.91465666839932, "alt_km": 302.856285155568, "timestamp": "2025-12-11T13:55:00.915575+00:00", "meta": {"OBJECT_NAME": "STARLINK-36042", "OBJECT_ID": "2025-278Y", "EPOCH": "2025-12-11T06:00:02.999808", "MEAN_MOTION": 15.91362308, "ECCENTRICITY": 0.00018398, "INCLINATION": 42.9984, "RA_OF_ASC_NODE": 261.2362, "ARG_OF_PERICENTER": 272.8788, "MEAN_ANOMALY": 269.1765, "EPHEMERIS_TYPE": 0, "CLASSIFICATION_TYPE": "U", "NORAD_CAT_ID": 66813, "ELEMENT_SET_NO": 999, "REV_AT_EPOCH": 271, "BSTAR": -0.0041653816, "MEAN_MOTION_DOT": -0.0138317, "MEAN_MOTION_DDOT": 0.00054353129}, "tle": {"line1": "1 66813U 25278Y   25345.25003472 -.01383170  54353-3 -41654-2 0  9990", "line2": "2 66813  42.9984 261.2362 0001839 272.8788 269.1765 15.91362308  2711"}}, "geometry": {"type": "Point", "coordinates": [173.91465666839932, -42.87988082359303]}}, {"type": "Feature", "properties": {"norad_id": 66814, "name": "STARLINK-35984", "group": "last-30-days", "lat": -40.220456323010964, "lon": -166.0287478244313, "alt_km": 302.4617847677373, "timestamp": "2025-12-11T13:55:00.915586+00:00", "meta": {"OBJECT_NAME": "STARLINK-35984", "OBJECT_ID": "2025-278Z", "EPOCH": "2025-12-11T06:00:02.999808", "MEAN_MOTION": 15.91538635, "ECCENTRICITY": 0.0001728, "INCLINATION": 42.9981, "RA_OF_ASC_NODE": 261.1979, "ARG_OF_PERICENTER": 271.7072, "MEAN_ANOMALY": 285.411, "EPHEMERIS_TYPE": 0, "CLASSIFICATION_TYPE": "U", "NORAD_CAT_ID": 66814, "ELEMENT_SET_NO": 999, "REV_AT_EPOCH": 280, "BSTAR": -0.0042911178, "MEAN_MOTION_DOT": -0.01437314, "MEAN_MOTION_DDOT": 0.00058415036}, "tle": {"line1": "1 66814U 25278Z   25345.25003472 -.01437314  58415-3 -42911-2 0  9991", "line2": "2 66814  42.9981 261.1979 0001728 271.7072 285.4110 15.91538635  2806"}}, "geometry": {"type": "Point", "coordinates": [-166.0287478244313, -40.220456323010964]}}, {"type": "Feature", "properties": {"norad_id": 66815, "name": "STARLINK-35985", "group": "last-30-days", "lat": -40.762264306262004, "lon": -168.5397628791075, "alt_km": 302.5125455544612, "timestamp": "2025-12-11T13:55:00.915596+00:00", "meta": {"OBJECT_NAME": "STARLINK-35985", "OBJECT_ID": "2025-278AA", "EPOCH": "2025-12-11T06:00:02.999808", "MEAN_MOTION": 15.91499729, "ECCENTRICITY": 0.00018201, "INCLINATION": 42.9979, "RA_OF_ASC_NODE": 261.2028, "ARG_OF_PERICENTER": 270.8227, "MEAN_ANOMALY": 284.3469, "EPHEMERIS_TYPE": 0, "CLASSIFICATION_TYPE": "U", "NORAD_CAT_ID": 66815, "ELEMENT_SET_NO": 999, "REV_AT_EPOCH": 280, "BSTAR": -0.0042731358, "MEAN_MOTION_DOT": -0.01428536, "MEAN_MOTION_DDOT": 0.00057741013}, "tle": {"line1": "1 66815U 25278AA  25345.25003472 -.01428536  57741-3 -42731-2 0  9999", "line2": "2 66815  42.9979 261.2028 0001820 270.8227 284.3469 15.91499729  2800"}}, "geometry": {"type": "Point", "coordinates": [-168.5397628791075, -40.762264306262004]}}]}